#aV2014  8 22  0  0  0.00000000     288 DD+AD WGS84 FIT  NGA
## 1806 432000.00000000   300.00000000 56891 0.0000000000000
+   31     1  2  4  5  6  7  8  9 10 11 12 13 14 15 16 17 18
+         19 20 21 22 23 24 25 26 27 28 29 30 31 32  0  0  0
+          0  0  0  0  0  0  0  0  0  0  0  0  0  0  0  0  0
+          0  0  0  0  0  0  0  0  0  0  0  0  0  0  0  0  0
+          0  0  0  0  0  0  0  0  0  0  0  0  0  0  0  0  0
++         2  2  2  2  2  2  2  2  2  2  2  2  2  2  2  2  2
++         2  2  2  2  2  2  2  2  2  2  2  2  2  2  0  0  0
++         0  0  0  0  0  0  0  0  0  0  0  0  0  0  0  0  0
++         0  0  0  0  0  0  0  0  0  0  0  0  0  0  0  0  0
++         0  0  0  0  0  0  0  0  0  0  0  0  0  0  0  0  0
%c cc cc ccc ccc cccc cccc cccc cccc ccccc ccccc ccccc ccccc
%c cc cc ccc ccc cccc cccc cccc cccc ccccc ccccc ccccc ccccc
%f  0.0000000  0.000000000  0.00000000000  0.000000000000000
%f  0.0000000  0.000000000  0.00000000000  0.000000000000000
%i    0    0    0    0      0      0      0      0         0
%i    0    0    0    0      0      0      0      0         0
/*      NGA, ST. LOUIS,MO.                                  
/*   EPHEMERIS COMPUTED FROM  1 DAYS OF DATA                
/*   EPOCHA SMOOTHER                                       
/* CCCCCCCCCCCCCCCCCCCCCCCCCCCCCCCCCCCCCCCCCCCCCCCCCCCCCCCCC
*  2014  8 22 18 10  0.00000000
P  1  14274.369384  -5563.951788  21644.581563     20.046640                    
V  1   5867.296754  26962.844666   3205.865652      0.006271                    
P  2 -13681.440939 -19393.280128 -12094.948586    514.072549                    
V  2  -1102.441200 -15877.199327  25565.624843      0.021730                    
P  4   7288.443703 -19843.042771  15579.928116     -0.142350                    
V  4   7019.995549  19493.445808  21372.560216     -0.001771                    
P  5 -14928.629322  -6823.082371 -20947.477616   -346.925680                    
V  5  19194.052885 -18330.054453  -7552.202932      0.035222                    
P  6  -6730.341177 -25639.898650  -1763.550024     -4.808906                    
V  6   2253.688606  -2754.343171  31660.465715     -0.006576                    
P  7   8022.347566 -18843.487923 -16626.542036    383.081730                    
V  7   5681.485478  20697.582543 -20958.255109      0.042575                    
P  8   7949.509939 -20092.532929 -14780.957241     15.232126                    
V  8   3300.966989  19108.420628 -24513.593093      0.001353                    
P  9   7390.736345  16821.361555  19579.797258     18.319072                    
V  9 -23470.663522  -6405.129805  14348.537773      0.035827                    
P 10    168.298777 -18634.512451 -19114.463279   -138.936041                    
V 10  19025.722846 -14332.436033  14828.360868     -0.015266                    
P 11  18396.822535   1583.027212  18640.915768   -515.385398                    
V 11  10921.800274  22557.468886 -12171.434448     -0.030512                    
P 12 -22175.805598   8242.790930  11770.988110    226.730276                    
V 12  10486.637631 -11025.614563  27503.204466      0.026113                    
P 13  16209.952012  -7414.485668 -19872.020904    -33.707851                    
V 13  22287.642968  11054.805518  13975.293655     -0.039168                    
P 14   3598.970166  16764.224286  20557.284147    142.280063                    
V 14 -23890.291316  -8999.996361  11502.800555     -0.036692                    
P 15 -25852.736486  -2629.884189   6155.646629   -198.415996                    
V 15  -6672.211696  -5248.499832 -29683.728733     -0.022134                    
P 16  14244.484877   6754.899945 -21494.954260   -199.787493                    
V 16 -20945.413592  17059.286660  -8196.322816      0.023994                    
P 17  -3660.569151 -16581.685093  20741.072179   -118.398038                    
V 17  24270.337136   8363.884897  10888.597548     -0.027461                    
P 18 -14729.557256  20850.743377   7161.298747    339.794660                    
V 18  -8982.567965   2971.260836 -29337.500982      0.025210                    
P 19  25228.018699   8201.214586   3682.750874   -474.854537                    
V 19   3520.217608   3972.735127 -31137.242884     -0.019783                    
P 20  21425.254887 -13365.688040   7932.873164    225.033959                    
V 20  -4624.759766  10022.285926  28762.013013      0.044016                    
P 21  -4295.171230  22612.734031 -12219.983121   -379.816972                    
V 21  -7026.827375 -15627.500636 -25563.926187     -0.021235                    
P 22  -3340.130746  20352.074440  16866.833531    261.198103                    
V 22 -17303.599681  12484.867871 -18898.956421      0.032492                    
P 23  23067.145381  -2204.016218 -13235.720610    -46.524311                    
V 23  15275.027709   7488.543402  24712.908521     -0.029546                    
P 24 -15359.762721   1199.934537  21621.946853    -33.948781                    
V 24  -5788.271999 -26893.397586  -2519.733536     -0.006285                    
P 25 -20034.256282  17302.152935    825.991067     23.168611                    
V 25   -774.289644  -2570.947281  32169.828421     -0.007211                    
P 26 -22652.372039 -13539.231464  -4781.202552    -28.781494                    
V 26   5575.914446    224.577554 -31106.908996     -0.131386                    
P 27  22235.157758  12596.039048  -7380.518019      8.260604                    
V 27  -9646.801256   -502.227689 -29914.698417      0.031676                    
P 28   8783.396246 -20007.851397  15613.099156    379.023932                    
V 28  15555.052694 -10532.260955 -23280.165246      0.027111                    
P 29 -15563.684396   8480.592318 -19739.308565    555.394621                    
V 29 -23019.722175 -10098.291051  13832.522400      0.025864                    
P 30   2053.932821 -25349.151990  -7576.158197    -52.105717                    
V 30   3969.456896   9194.375217 -29748.226279     -0.052879                    
P 31   6891.951992  25212.322360  -3500.081239    332.481303                    
V 31  -1661.823990   5034.515300  31926.441443     -0.003517                    
P 32  19950.549517    514.491823  17291.700089   -357.087012                    
V 32 -16307.766160  15130.951635  18948.538354      0.084699                    
EOF
